0 CALIPSO
1 29108U 06016B   13281.86055827  .00000487  00000-0  11812-3 0  4304
2 29108 098.2079 223.7552 0001466 071.4754 288.6603 14.57102487396165
0 CALIPSO
1 29108U 06016B   13282.95927659  .00000690  00000-0  16312-3 0  4313
2 29108 098.2074 224.8376 0001423 076.3711 283.7674 14.57104853396327
0 CALIPSO
1 29108U 06016B   13284.05799218  .00000832  00000-0  19468-3 0  4328
2 29108 098.2077 225.9208 0001498 077.3032 282.8341 14.57107508396483
0 CALIPSO
1 29108U 06016B   13285.22537593  .00001057  00000-0  24452-3 0  4334
2 29108 098.2087 227.0712 0001443 078.9284 281.2118 14.57110955396657
0 CALIPSO
1 29108U 06016B   13286.39275705  .00000948  00000-0  22054-3 0  4342
2 29108 098.2092 228.2213 0001496 075.0813 285.0522 14.57112865396828
0 CALIPSO
1 29108U 06016B   13287.49146919  .00000753  00000-0  17710-3 0  4356
2 29108 098.2081 229.3048 0001473 073.4165 286.7170 14.57113770396981
0 CALIPSO
1 29108U 06016B   13288.65884908  .00000706  00000-0  16675-3 0  4360
2 29108 098.2082 230.4556 0001478 072.8701 287.2639 14.57115367397153
0 CALIPSO
1 29108U 06016B   13289.68888740  .00000920  00000-0  21419-3 0  4373
2 29108 098.2075 231.4708 0001473 075.7522 284.3822 14.57118279397307
0 CALIPSO
1 29108U 06016B   13290.85626237  .00001079  00000-0  24946-3 0  4380
2 29108 098.2082 232.6218 0001491 076.3308 283.8052 14.57121603397475
0 CALIPSO
1 29108U 06016B   13291.95496629  .00001175  00000-0  27069-3 0  4399
2 29108 098.2082 233.7045 0001451 078.5256 281.6135 14.57124707397631
0 CALIPSO
1 29108U 06016B   13293.12233639  .00001086  00000-0  25094-3 0  4409
2 29108 098.2087 234.8552 0001422 075.9829 284.1514 14.57127024397809
0 CALIPSO
1 29108U 06016B   13294.28970618  .00000953  00000-0  22137-3 0  4410
2 29108 098.2091 236.0057 0001428 073.9422 286.1944 14.57128971397970
0 CALIPSO
1 29108U 06016B   13295.38840491  .00000803  00000-0  18828-3 0  4424
2 29108 098.2102 237.0888 0001356 079.3437 280.7900 14.57130261398138
